NORAD_CAT_ID,OBJECT_NAME,OBJECT_TYPE,EPOCH,MEAN_MOTION,ECCENTRICITY,INCLINATION,RA_OF_ASC_NODE,ARG_OF_PERICENTER,MEAN_ANOMALY,BSTAR,MEAN_MOTION_DOT,MEAN_MOTION_DDOT,TLE_LINE0,TLE_LINE1,TLE_LINE2,SEMIMAJOR_AXIS,PERIOD,APOGEE,PERIGEE,DECAYED
55405.0,STARLINK-5623,PAYLOAD,2024-06-24 11:30:59,14.98324709,0.0003817,69.999,195.826,270.2747,89.7975,-5.6836e-06,-1.61e-06,0.0,0 STARLINK-5623,1 55405U 23014Q   24176.47985358 -.00000161  00000-0 -56836-5 0  9991,2 55405  69.9990 195.8260 0003817 270.2747  89.7975 14.98324709 78706,6950.209,96.107,574.727,569.421,0.0
55405.0,STARLINK-5623,PAYLOAD,2024-06-25 05:08:28,14.98322183,0.000413,69.9984,193.9724,277.4823,82.5867,-5.5692e-05,-7.58e-06,0.0,0 STARLINK-5623,1 55405U 23014Q   24177.21421892 -.00000758  00000-0 -55692-4 0  9992,2 55405  69.9984 193.9724 0004130 277.4823  82.5867 14.98322183 77878,6950.217,96.108,574.953,569.212,0.0
55405.0,STARLINK-5623,PAYLOAD,2024-06-25 11:33:00,14.98328538,0.0003902,69.9987,193.3004,270.2346,89.8366,-2.6919e-05,-4.14e-06,0.0,0 STARLINK-5623,1 55405U 23014Q   24177.48125380 -.00000414  00000-0 -26919-4 0  9993,2 55405  69.9987 193.3004 0003902 270.2346  89.8366 14.98328538 77912,6950.197,96.107,574.774,569.35,0.0
55405.0,STARLINK-5623,PAYLOAD,2024-06-26 09:58:53,14.98324318,0.0003774,69.9992,190.945,271.1557,88.9169,7.066e-05,7.5e-06,0.0,0 STARLINK-5623,1 55405U 23014Q   24178.41589496  .00000750  00000-0  70660-4 0  9992,2 55405  69.9992 190.9450 0003774 271.1557  88.9169 14.98324318 78999,6950.21,96.107,574.698,569.452,0.0
55405.0,STARLINK-5623,PAYLOAD,2024-06-27 05:12:30,14.98328448,0.0003811,69.9991,188.9253,269.7359,90.3363,0.00011005,1.22e-05,0.0,0 STARLINK-5623,1 55405U 23014Q   24179.21701424  .00001220  00000-0  11005-3 0  9998,2 55405  69.9991 188.9253 0003811 269.7359  90.3363 14.98328448 78172,6950.198,96.107,574.711,569.414,0.0
55405.0,STARLINK-5623,PAYLOAD,2024-06-27 10:00:52,14.98346181,0.0003731,69.9991,188.4197,272.9944,87.0788,0.00030649,3.567e-05,0.0,0 STARLINK-5623,1 55405U 23014Q   24179.41727809  .00003567  00000-0  30649-3 0  9996,2 55405  69.9991 188.4197 0003731 272.9944  87.0788 14.98346181 78203,6950.143,96.106,574.601,569.415,0.0
55405.0,STARLINK-5623,PAYLOAD,2024-06-27 18:01:33,14.9834091,0.0003588,69.9993,187.5792,271.6679,88.4069,0.00021503,2.474e-05,0.0,0 STARLINK-5623,1 55405U 23014Q   24179.75108187  .00002474  00000-0  21503-3 0  9990,2 55405  69.9993 187.5792 0003588 271.6679  88.4069 14.98340910 78253,6950.159,96.106,574.518,569.53,0.0
55405.0,STARLINK-5623,PAYLOAD,2024-06-28 03:38:22,14.98327289,0.0003711,69.9989,186.5683,270.8776,89.1957,3.1067e-05,2.78e-06,0.0,0 STARLINK-5623,1 55405U 23014Q   24180.15165427  .00000278  00000-0  31067-4 0  9993,2 55405  69.9989 186.5683 0003711 270.8776  89.1957 14.98327289 78318,6950.201,96.107,574.645,569.487,0.0
55405.0,STARLINK-5623,PAYLOAD,2024-06-28 10:02:54,14.98332361,0.0003869,69.9987,185.8948,272.105,87.9666,5.8209e-05,6.02e-06,0.0,0 STARLINK-5623,1 55405U 23014Q   24180.41869064  .00000602  00000-0  58209-4 0  9998,2 55405  69.9987 185.8948 0003869 272.1050  87.9666 14.98332361 79294,6950.186,96.107,574.74,569.362,0.0
55405.0,STARLINK-5623,PAYLOAD,2024-06-29 03:40:23,14.98332743,0.000365,69.9989,184.0433,270.5735,89.5006,1.7999e-05,1.22e-06,0.0,0 STARLINK-5623,1 55405U 23014Q   24181.15305093  .00000122  00000-0  17999-4 0  9995,2 55405  69.9989 184.0433 0003650 270.5735  89.5006 14.98332743 78464,6950.184,96.107,574.586,569.513,0.0
55405.0,STARLINK-5623,PAYLOAD,2024-06-29 10:04:55,14.98336123,0.0003545,69.999,183.3701,272.0831,87.9922,1.6702e-05,1.06e-06,0.0,0 STARLINK-5623,1 55405U 23014Q   24181.42008842  .00000106  00000-0  16702-4 0  9990,2 55405  69.9990 183.3701 0003545 272.0831  87.9922 14.98336123 79447,6950.174,96.107,574.503,569.575,0.0
55405.0,STARLINK-5623,PAYLOAD,2024-06-29 18:05:35,14.98344763,0.0003665,69.999,182.5287,266.9446,93.1294,-0.00019733,-2.448e-05,0.0,0 STARLINK-5623,1 55405U 23014Q   24181.75388540 -.00002448  00000-0 -19733-3 0  9991,2 55405  69.9990 182.5287 0003665 266.9446  93.1294 14.98344763 78555,6950.147,96.106,574.559,569.465,0.0
55405.0,STARLINK-5623,PAYLOAD,2024-06-30 05:18:32,14.9832714,0.0003569,69.9992,181.3508,271.8162,88.2588,6.1752e-05,6.44e-06,0.0,0 STARLINK-5623,1 55405U 23014Q   24182.22121129  .00000644  00000-0  61752-4 0  9995,2 55405  69.9992 181.3508 0003569 271.8162  88.2588 14.98327140 78622,6950.202,96.107,574.547,569.586,0.0
55405.0,STARLINK-5623,PAYLOAD,2024-06-30 10:06:56,14.98329291,0.0003534,69.9992,180.8457,271.4719,88.6035,7.1809e-05,7.64e-06,0.0,0 STARLINK-5623,1 55405U 23014Q   24182.42148996  .00000764  00000-0  71809-4 0  9995,2 55405  69.9992 180.8457 0003534 271.4719  88.6035 14.98329291 79592,6950.195,96.107,574.516,569.604,0.0
55405.0,STARLINK-5623,PAYLOAD,2024-06-30 22:56:01,14.98333182,0.0003526,69.9992,179.4992,271.3947,88.6809,7.7906e-05,8.37e-06,0.0,0 STARLINK-5623,1 55405U 23014Q   24182.95556743  .00000837  00000-0  77906-4 0  9991,2 55405  69.9992 179.4992 0003526 271.3947  88.6809 14.98333182 79675,6950.183,96.107,574.499,569.597,0.0
55405.0,STARLINK-5623,PAYLOAD,2024-07-01 10:08:57,14.98335179,0.0003523,69.9993,178.321,271.3653,88.7103,9.3423e-05,1.022e-05,0.0,0 STARLINK-5623,1 55405U 23014Q   24183.42288518  .00001022  00000-0  93423-4 0  9995,2 55405  69.9993 178.3210 0003523 271.3653  88.7103 14.98335179 78808,6950.177,96.107,574.49,569.593,0.0
55405.0,STARLINK-5623,PAYLOAD,2024-07-01 22:58:02,14.98327987,0.0003463,69.9996,176.9747,270.8887,89.1875,2.3122e-05,1.83e-06,0.0,0 STARLINK-5623,1 55405U 23014Q   24183.95697110  .00000183  00000-0  23122-4 0  9991,2 55405  69.9996 176.9747 0003463 270.8887  89.1875 14.98327987 79828,6950.199,96.107,574.471,569.657,0.0
55405.0,STARLINK-5623,PAYLOAD,2024-07-02 05:22:34,14.98329084,0.0003484,69.9995,176.3015,270.0622,90.0138,2.4922e-05,2.04e-06,0.0,0 STARLINK-5623,1 55405U 23014Q   24184.22401048  .00000204  00000-0  24922-4 0  9998,2 55405  69.9995 176.3015 0003484 270.0622  90.0138 14.98329084 78924,6950.196,96.107,574.482,569.639,0.0
55405.0,STARLINK-5623,PAYLOAD,2024-07-02 10:10:58,14.98329398,0.0003431,69.9996,175.7967,269.7631,90.3134,4.1654e-05,4.04e-06,0.0,0 STARLINK-5623,1 55405U 23014Q   24184.42428999  .00000404  00000-0  41654-4 0  9997,2 55405  69.9996 175.7967 0003431 269.7631  90.3134 14.98329398 79895,6950.195,96.107,574.444,569.675,0.0
55405.0,STARLINK-5623,PAYLOAD,2024-07-03 10:12:59,14.98332053,0.0003345,69.9999,173.2719,268.2407,91.8369,2.3209e-05,1.84e-06,0.0,0 STARLINK-5623,1 55405U 23014Q   24185.42568775  .00000184  00000-0  23209-4 0  9996,2 55405  69.9999 173.2719 0003345 268.2407  91.8369 14.98332053 79107,6950.187,96.107,574.376,569.727,0.0
55405.0,STARLINK-5623,PAYLOAD,2024-07-03 16:37:31,14.98330997,0.0003389,69.9998,172.5987,269.619,90.4581,1.5936e-05,9.7e-07,0.0,0 STARLINK-5623,1 55405U 23014Q   24185.69272822  .00000097  00000-0  15936-4 0  9991,2 55405  69.9998 172.5987 0003389 269.6190  90.4581 14.98330997 80082,6950.19,96.107,574.41,569.699,0.0
55405.0,STARLINK-5623,PAYLOAD,2024-07-04 08:38:52,14.98329722,0.0003439,69.9996,170.9152,269.0671,91.0094,5.7005e-05,5.87e-06,0.0,0 STARLINK-5623,1 55405U 23014Q   24186.36032814  .00000587  00000-0  57005-4 0  9998,2 55405  69.9996 170.9152 0003439 269.0671  91.0094 14.98329722 80181,6950.194,96.107,574.449,569.669,0.0
55405.0,STARLINK-5623,PAYLOAD,2024-07-04 16:39:32,14.98331038,0.0003433,69.9997,170.0735,268.9919,91.0847,6.035e-05,6.27e-06,0.0,0 STARLINK-5623,1 55405U 23014Q   24186.69412704  .00000627  00000-0  60350-4 0  9996,2 55405  69.9997 170.0735 0003433 268.9919  91.0847 14.98331038 79296,6950.19,96.107,574.441,569.669,0.0
55405.0,STARLINK-5623,PAYLOAD,2024-07-04 23:04:04,14.98332443,0.0003433,69.9996,169.4003,268.8054,91.2712,5.1767e-05,5.25e-06,0.0,0 STARLINK-5623,1 55405U 23014Q   24186.96116630  .00000525  00000-0  51767-4 0  9994,2 55405  69.9996 169.4003 0003433 268.8054  91.2712 14.98332443 80278,6950.185,96.107,574.436,569.664,0.0
55405.0,STARLINK-5623,PAYLOAD,2024-07-05 08:40:52,14.98335961,0.0003415,69.9997,168.3905,268.8428,91.2339,8.6825e-05,9.43e-06,0.0,0 STARLINK-5623,1 55405U 23014Q   24187.36172233  .00000943  00000-0  86825-4 0  9997,2 55405  69.9997 168.3905 0003415 268.8428  91.2339 14.98335961 80333,6950.174,96.107,574.413,569.666,0.0
55405.0,STARLINK-5623,PAYLOAD,2024-07-05 16:41:33,14.98330855,0.0003392,69.9997,167.5487,268.9508,91.1262,1.9612e-05,1.41e-06,0.0,0 STARLINK-5623,1 55405U 23014Q   24187.69552657  .00000141  00000-0  19612-4 0  9995,2 55405  69.9997 167.5487 0003392 268.9508  91.1262 14.98330855 79444,6950.19,96.107,574.413,569.698,0.0
55405.0,STARLINK-5623,PAYLOAD,2024-07-05 21:29:57,14.98329174,0.0003385,69.9996,167.0439,268.8174,91.2597,1.4499e-05,8e-07,0.0,0 STARLINK-5623,1 55405U 23014Q   24187.89580791  .00000080  00000-0  14499-4 0  9997,2 55405  69.9996 167.0439 0003385 268.8174  91.2597 14.98329174 80418,6950.195,96.107,574.413,569.708,0.0
55405.0,STARLINK-5623,PAYLOAD,2024-07-06 08:42:54,14.98329263,0.0003383,69.9996,165.8658,268.8851,91.192,1.7179e-05,1.12e-06,0.0,0 STARLINK-5623,1 55405U 23014Q   24188.36312787  .00000112  00000-0  17179-4 0  9992,2 55405  69.9996 165.8658 0003383 268.8851  91.1920 14.98329263 80482,6950.195,96.107,574.411,569.709,0.0
55405.0,STARLINK-5623,PAYLOAD,2024-07-06 21:31:58,14.98331504,0.0003324,69.9997,164.5193,269.1852,90.8926,-7.3164e-06,-1.8e-06,0.0,0 STARLINK-5623,1 55405U 23014Q   24188.89720701 -.00000180  00000-0 -73164-5 0  9993,2 55405  69.9997 164.5193 0003324 269.1852  90.8926 14.98331504 80565,6950.188,96.107,574.363,569.743,0.0
55405.0,STARLINK-5623,PAYLOAD,2024-07-07 03:56:30,14.98332526,0.0003326,69.9997,163.846,269.1783,90.8995,3.1323e-06,-5.6e-07,0.0,0 STARLINK-5623,1 55405U 23014Q   24189.16424563 -.00000056  00000-0  31323-5 0  9993,2 55405  69.9997 163.8460 0003326 269.1783  90.8995 14.98332526 79669,6950.185,96.107,574.362,569.738,0.0
